[
  {
    "ORDINAL": "1",
    "COMMENT": "GENERATED VIA SPACETRACK.ORG API",
    "ORIGINATOR": "18 SPCS",
    "NORAD_CAT_ID": "125",
    "OBJECT_NAME": "THOR ABLESTAR DEB",
    "OBJECT_TYPE": "DEBRIS",
    "CLASSIFICATION_TYPE": "U",
    "INTLDES": "61015K",
    "EPOCH": "2023-02-02 11:51:59",
    "EPOCH_MICROSECONDS": "435424",
    "MEAN_MOTION": "14.0591834",
    "ECCENTRICITY": "0.0080463",
    "INCLINATION": "66.8765",
    "RA_OF_ASC_NODE": "126.1281",
    "ARG_OF_PERICENTER": "247.8347",
    "MEAN_ANOMALY": "111.4188",
    "EPHEMERIS_TYPE": "0",
    "ELEMENT_SET_NO": "999",
    "REV_AT_EPOCH": "14463",
    "BSTAR": "0.00036585",
    "MEAN_MOTION_DOT": "0.00000538",
    "MEAN_MOTION_DDOT": "0",
    "FILE": "3768489",
    "TLE_LINE0": "0 THOR ABLESTAR DEB",
    "TLE_LINE1": "1   125U 61015K   23033.49443791  .00000538  00000-0  36585-3 0  9999",
    "TLE_LINE2": "2   125  66.8765 126.1281 0080463 247.8347 111.4188 14.05918340144632",
    "OBJECT_ID": "1961-015K",
    "OBJECT_NUMBER": "125",
    "SEMIMAJOR_AXIS": "7251.510",
    "PERIOD": "102.424",
    "APOGEE": "931.723",
    "PERIGEE": "815.027",
    "DECAYED": "0"
  },
  {
    "ORDINAL": "1",
    "COMMENT": "GENERATED VIA SPACETRACK.ORG API",
    "ORIGINATOR": "18 SPCS",
    "NORAD_CAT_ID": "126",
    "OBJECT_NAME": "THOR ABLESTAR DEB",
    "OBJECT_TYPE": "DEBRIS",
    "CLASSIFICATION_TYPE": "U",
    "INTLDES": "61015L",
    "EPOCH": "2023-02-02 12:54:55",
    "EPOCH_MICROSECONDS": "132704",
    "MEAN_MOTION": "14.37439623",
    "ECCENTRICITY": "0.0060358",
    "INCLINATION": "66.7119",
    "RA_OF_ASC_NODE": "131.0447",
    "ARG_OF_PERICENTER": "83.4217",
    "MEAN_ANOMALY": "277.3751",
    "EPHEMERIS_TYPE": "0",
    "ELEMENT_SET_NO": "999",
    "REV_AT_EPOCH": "18725",
    "BSTAR": "0.00039542",
    "MEAN_MOTION_DOT": "0.00001123",
    "MEAN_MOTION_DDOT": "0",
    "FILE": "3768366",
    "TLE_LINE0": "0 THOR ABLESTAR DEB",
    "TLE_LINE1": "1 00126U 61015L   23033.53813811  .00001123  00000-0  39542-3 0  9996",
    "TLE_LINE2": "2 00126  66.7119 131.0447 0060358  83.4217 277.3751 14.37439623187255",
    "OBJECT_ID": "1961-015L",
    "OBJECT_NUMBER": "126",
    "SEMIMAJOR_AXIS": "7145.107",
    "PERIOD": "100.178",
    "APOGEE": "810.099",
    "PERIGEE": "723.846",
    "DECAYED": "0"
  },
  {
    "ORDINAL": "1",
    "COMMENT": "GENERATED VIA SPACETRACK.ORG API",
    "ORIGINATOR": "18 SPCS",
    "NORAD_CAT_ID": "127",
    "OBJECT_NAME": "THOR ABLESTAR DEB",
    "OBJECT_TYPE": "DEBRIS",
    "CLASSIFICATION_TYPE": "U",
    "INTLDES": "61015M",
    "EPOCH": "2023-02-02 06:39:10",
    "EPOCH_MICROSECONDS": "651968",
    "MEAN_MOTION": "14.4021522",
    "ECCENTRICITY": "0.0075902",
    "INCLINATION": "66.832",
    "RA_OF_ASC_NODE": "344.6441",
    "ARG_OF_PERICENTER": "236.4797",
    "MEAN_ANOMALY": "122.9041",
    "EPHEMERIS_TYPE": "0",
    "ELEMENT_SET_NO": "999",
    "REV_AT_EPOCH": "18907",
    "BSTAR": "0.00053775",
    "MEAN_MOTION_DOT": "0.00001674",
    "MEAN_MOTION_DDOT": "0",
    "FILE": "3768366",
    "TLE_LINE0": "0 THOR ABLESTAR DEB",
    "TLE_LINE1": "1 00127U 61015M   23033.27720662  .00001674  00000-0  53775-3 0  9994",
    "TLE_LINE2": "2 00127  66.8320 344.6441 0075902 236.4797 122.9041 14.40215220189079",
    "OBJECT_ID": "1961-015M",
    "OBJECT_NUMBER": "127",
    "SEMIMAJOR_AXIS": "7135.924",
    "PERIOD": "99.985",
    "APOGEE": "811.953",
    "PERIGEE": "703.626",
    "DECAYED": "0"
  },
  {
    "ORDINAL": "1",
    "COMMENT": "GENERATED VIA SPACETRACK.ORG API",
    "ORIGINATOR": "18 SPCS",
    "NORAD_CAT_ID": "128",
    "OBJECT_NAME": "THOR ABLESTAR DEB",
    "OBJECT_TYPE": "DEBRIS",
    "CLASSIFICATION_TYPE": "U",
    "INTLDES": "61015N",
    "EPOCH": "2023-02-02 07:09:21",
    "EPOCH_MICROSECONDS": "852576",
    "MEAN_MOTION": "14.01345747",
    "ECCENTRICITY": "0.0087193",
    "INCLINATION": "66.6764",
    "RA_OF_ASC_NODE": "16.3661",
    "ARG_OF_PERICENTER": "81.9225",
    "MEAN_ANOMALY": "279.1739",
    "EPHEMERIS_TYPE": "0",
    "ELEMENT_SET_NO": "999",
    "REV_AT_EPOCH": "14256",
    "BSTAR": "0.00010642",
    "MEAN_MOTION_DOT": "0.00000086",
    "MEAN_MOTION_DDOT": "0",
    "FILE": "3768366",
    "TLE_LINE0": "0 THOR ABLESTAR DEB",
    "TLE_LINE1": "1 00128U 61015N   23033.29816959  .00000086  00000-0  10642-3 0  9994",
    "TLE_LINE2": "2 00128  66.6764  16.3661 0087193  81.9225 279.1739 14.01345747142568",
    "OBJECT_ID": "1961-015N",
    "OBJECT_NUMBER": "128",
    "SEMIMAJOR_AXIS": "7267.276",
    "PERIOD": "102.758",
    "APOGEE": "952.506",
    "PERIGEE": "825.775",
    "DECAYED": "0"
  },
  {
    "ORDINAL": "1",
    "COMMENT": "GENERATED VIA SPACETRACK.ORG API",
    "ORIGINATOR": "18 SPCS",
    "NORAD_CAT_ID": "129",
    "OBJECT_NAME": "THOR ABLESTAR DEB",
    "OBJECT_TYPE": "DEBRIS",
    "CLASSIFICATION_TYPE": "U",
    "INTLDES": "61015P",
    "EPOCH": "1981-08-31 09:21:31",
    "EPOCH_MICROSECONDS": "213440",
    "MEAN_MOTION": "16.27573342",
    "ECCENTRICITY": "0.0024828",
    "INCLINATION": "66.536",
    "RA_OF_ASC_NODE": "148.0205",
    "ARG_OF_PERICENTER": "248.7788",
    "MEAN_ANOMALY": "111.1346",
    "EPHEMERIS_TYPE": "0",
    "ELEMENT_SET_NO": "999",
    "REV_AT_EPOCH": "7159",
    "BSTAR": "0.002939",
    "MEAN_MOTION_DOT": "0.11582138",
    "MEAN_MOTION_DDOT": "0.000030779",
    "FILE": "34279",
    "TLE_LINE0": "0 THOR ABLESTAR DEB",
    "TLE_LINE1": "1 00129U 61015  P 81243.38994460  .11582138 +30779-4 +29390-2 0  9990",
    "TLE_LINE2": "2 00129 066.5360 148.0205 0024828 248.7788 111.1346 16.27573342071597",
    "OBJECT_ID": "1961-015P",
    "OBJECT_NUMBER": "129",
    "SEMIMAJOR_AXIS": "6577.210",
    "PERIOD": "88.475",
    "APOGEE": "215.405",
    "PERIGEE": "182.746",
    "DECAYED": "1"
  },
  {
    "ORDINAL": "1",
    "COMMENT": "GENERATED VIA SPACETRACK.ORG API",
    "ORIGINATOR": "18 SPCS",
    "NORAD_CAT_ID": "130",
    "OBJECT_NAME": "THOR ABLESTAR DEB",
    "OBJECT_TYPE": "DEBRIS",
    "CLASSIFICATION_TYPE": "U",
    "INTLDES": "61015Q",
    "EPOCH": "2023-02-02 11:19:19",
    "EPOCH_MICROSECONDS": "351200",
    "MEAN_MOTION": "13.9884575",
    "ECCENTRICITY": "0.0079351",
    "INCLINATION": "66.7707",
    "RA_OF_ASC_NODE": "62.6513",
    "ARG_OF_PERICENTER": "72.0362",
    "MEAN_ANOMALY": "288.935",
    "EPHEMERIS_TYPE": "0",
    "ELEMENT_SET_NO": "999",
    "REV_AT_EPOCH": "13982",
    "BSTAR": "0.000080873",
    "MEAN_MOTION_DOT": "0.00000041",
    "MEAN_MOTION_DDOT": "0",
    "FILE": "3768776",
    "TLE_LINE0": "0 THOR ABLESTAR DEB",
    "TLE_LINE1": "1   130U 61015Q   23033.47175175  .00000041  00000-0  80873-4 0  9990",
    "TLE_LINE2": "2   130  66.7707  62.6513 0079351  72.0362 288.9350 13.98845750139825",
    "OBJECT_ID": "1961-015Q",
    "OBJECT_NUMBER": "130",
    "SEMIMAJOR_AXIS": "7275.932",
    "PERIOD": "102.942",
    "APOGEE": "955.532",
    "PERIGEE": "840.062",
    "DECAYED": "0"
  },
  {
    "ORDINAL": "1",
    "COMMENT": "GENERATED VIA SPACETRACK.ORG API",
    "ORIGINATOR": "18 SPCS",
    "NORAD_CAT_ID": "131",
    "OBJECT_NAME": "THOR ABLESTAR DEB",
    "OBJECT_TYPE": "DEBRIS",
    "CLASSIFICATION_TYPE": "U",
    "INTLDES": "61015R",
    "EPOCH": "2023-02-02 03:17:10",
    "EPOCH_MICROSECONDS": "621536",
    "MEAN_MOTION": "14.00897664",
    "ECCENTRICITY": "0.0084278",
    "INCLINATION": "66.7355",
    "RA_OF_ASC_NODE": "290.9864",
    "ARG_OF_PERICENTER": "211.9378",
    "MEAN_ANOMALY": "147.6582",
    "EPHEMERIS_TYPE": "0",
    "ELEMENT_SET_NO": "999",
    "REV_AT_EPOCH": "13097",
    "BSTAR": "0.00011021",
    "MEAN_MOTION_DOT": "0.00000091",
    "MEAN_MOTION_DDOT": "0",
    "FILE": "3768366",
    "TLE_LINE0": "0 THOR ABLESTAR DEB",
    "TLE_LINE1": "1 00131U 61015R   23033.13692849  .00000091  00000-0  11021-3 0  9999",
    "TLE_LINE2": "2 00131  66.7355 290.9864 0084278 211.9378 147.6582 14.00897664130975",
    "OBJECT_ID": "1961-015R",
    "OBJECT_NUMBER": "131",
    "SEMIMAJOR_AXIS": "7268.825",
    "PERIOD": "102.791",
    "APOGEE": "951.951",
    "PERIGEE": "829.430",
    "DECAYED": "0"
  },
  {
    "ORDINAL": "1",
    "COMMENT": "GENERATED VIA SPACETRACK.ORG API",
    "ORIGINATOR": "18 SPCS",
    "NORAD_CAT_ID": "132",
    "OBJECT_NAME": "THOR ABLESTAR DEB",
    "OBJECT_TYPE": "DEBRIS",
    "CLASSIFICATION_TYPE": "U",
    "INTLDES": "61015S",
    "EPOCH": "2023-02-02 12:41:23",
    "EPOCH_MICROSECONDS": "479872",
    "MEAN_MOTION": "13.94409038",
    "ECCENTRICITY": "0.0081256",
    "INCLINATION": "66.6605",
    "RA_OF_ASC_NODE": "133.0863",
    "ARG_OF_PERICENTER": "297.6464",
    "MEAN_ANOMALY": "61.6384",
    "EPHEMERIS_TYPE": "0",
    "ELEMENT_SET_NO": "999",
    "REV_AT_EPOCH": "13206",
    "BSTAR": "0.000051403",
    "MEAN_MOTION_DOT": "-0.00000008",
    "MEAN_MOTION_DDOT": "0",
    "FILE": "3768366",
    "TLE_LINE0": "0 THOR ABLESTAR DEB",
    "TLE_LINE1": "1 00132U 61015S   23033.52874398 -.00000008  00000-0  51403-4 0  9992",
    "TLE_LINE2": "2 00132  66.6605 133.0863 0081256 297.6464  61.6384 13.94409038132062",
    "OBJECT_ID": "1961-015S",
    "OBJECT_NUMBER": "132",
    "SEMIMAJOR_AXIS": "7291.357",
    "PERIOD": "103.270",
    "APOGEE": "972.469",
    "PERIGEE": "853.976",
    "DECAYED": "0"
  }
]
